
2024012419 - METAR SBEG 241900Z 03004KT 9999 VCSH SCT030 FEW035TCU 32/23 Q1009=2024012419 - METAR SBMN 241900Z 34008KT 300V020 9999 SCT035 FEW040TCU SCT100 32/22 Q1009=2024012419 - METAR SBBV 241900Z 10013KT 9999 SCT040 FEW045TCU SCT100 34/17 Q1010=2024012419 - METAR SBPV 241900Z 01003KT 8000 BKN020 FEW030TCU BKN050 31/26 Q1009=2024012419 - METAR SBRB 241900Z 30008KT 9999 VCSH SCT017 FEW025TCU SCT100 27/24 Q1010=2024012419 - METAR SBCY 241900Z 32007KT 9999 BKN020 FEW025TCU BKN100 31/25 Q1007=2024012419 - METAR SBSL 241900Z 03014KT 9999 BKN020 31/24 Q1010=2024012419 - METAR SBBE 241900Z 19004KT 9999 VCSH FEW015 SCT020 FEW025TCU BKN100 27/26 Q1009 RESHRA RETS=2024012419 - METAR SBSN 241900Z 03005KT 9999 SCT016 BKN100 31/25 Q1009=2024012419 - METAR SBMQ 241900Z 09013KT 9999 FEW030 33/25 Q1008=2024012419 - METAR SBTF 241900Z 05006KT 9999 SCT020 32/23 Q1009=2024012419 - METAR SBAT 241900Z 29010KT 8000 3000NE -TSRA BKN015 FEW035CB 25/24 Q1010 RERA=2024012419 - METAR SBUA 241900Z 23004KT 170V260 CAVOK 31/25 Q1009=2024012419 - METAR SBCC 241900Z 25006KT 9999 BKN025 FEW030TCU BKN100 31/23 Q1010=2024012419 - METAR SBSO 241900Z 30009KT 9999 VCSH FEW015TCU BKN020 29/27 Q1008=2024012419 - METAR SBIH 241900Z 00000KT 9999 SCT019 30/25 Q1009=2024012419 - METAR SBTT 241900Z 29005KT 9999 SCT015 BKN070 31/23 Q1010=2024012419 - METAR SBJI 241900Z 02007KT 9999 TS VCSH FEW020 FEW022CB 26/24 Q1010=2024012419 - METAR SBHT 241900Z 07003KT 9999 SCT030 OVC100 26/25 Q1010=2024012419 - METAR SBMA 241900Z 04002KT 9999 FEW015 BKN020 FEW023TCU BKN100 31/25 Q1009=2024012419 - METAR SBVH 241900Z 27011KT 9999 BKN025 FEW035TCU SCT100 29/23 Q1011=2024012419 - METAR SBOI 241900Z AUTO 03007KT 340V060 9999 -RA FEW015 BKN025 27/26 Q1011 RERA=2024012419 - METAR SBCJ 241900Z 00000KT 5000 -RA BR BKN004 OVC080 23/22 Q1014=2024012419 - METAR SBIZ 241900Z 22003KT 9999 SCT025 31/26 Q1009=2024012419 - METAR SBTS 241900Z 32008KT 280V350 9999 BKN045 FEW050TCU 27/22 Q1012=2024012419 - METAR SBTB 241900Z AUTO 28003KT 190V350 CAVOK 31/25 Q1009=2024012419 - METAR SBUY 241900Z 02002KT 9999 FEW025 31/22 Q1008=2024012419 - METAR SBGM 241900Z 12001KT 7000 SCT034 BKN097 26/25 Q1010=2024012419 - METAR SBRD 241900Z 24007KT 9999 SCT025 30/22 Q1009=2024012419 - METAR SSKW 241900Z /////KT 9999 SCT020 BKN100 30/24 Q1010=2024012419 - METAR SBSI 241900Z 28018KT 9999 BKN020 29/24 Q1009=


