
2024012419 - METAR SBFZ 241900Z 03008KT 9999 FEW025 BKN090 30/23 Q1010=2024012419 - METAR SBSG 241900Z 05011KT 9999 VCSH SCT023 FEW033TCU BKN080 30/23 Q1011=2024012419 - METAR SBNT 241900Z 08011KT 9999 SCT023 FEW024TCU SCT060 29/24 Q1010=2024012419 - METAR SBJP 241900Z 02010KT 340V050 9999 SCT028 31/24 Q1011=2024012419 - METAR SBKG 241900Z 06014KT 9999 VCSH FEW030 FEW035TCU 29/21 Q1012=2024012419 - METAR SBRF 241900Z 05013KT 9999 SCT025 31/25 Q1010=2024012419 - METAR SBMO 241900Z 08018KT CAVOK 32/24 Q1008=2024012419 - METAR SBAR 241900Z 07011KT 9000 FEW040TCU BKN070 29/25 Q1007=2024012419 - METAR SBPL 241900Z 12004KT 9999 FEW030 BKN070 30/23 Q1010=2024012419 - METAR SBJU 241900Z 36008KT 9999 SCT020 FEW022TCU 31/22 Q1013=2024012419 - METAR SBSV 241900Z 36003KT 6000 -RA SCT020 FEW025TCU BKN100 25/24 Q1008=2024012419 - METAR SBIL 241900Z 04004KT 9999 TS VCSH FEW025 SCT030CB BKN070 29/27 Q1007=2024012419 - METAR SBPS 241900Z 03012KT 9999 SCT015 FEW025TCU BKN033 28/26 Q1006 RETS=2024012419 - METAR SBVC 241900Z 36005KT 9999 FEW030 BKN080 23/21 Q1012 RETS=2024012419 - METAR SBVT 241900Z 17005KT 9999 FEW020 BKN046 OVC090 25/22 Q1007=2024012419 - METAR SBTE 241900Z 29003KT 210V320 9999 FEW020 BKN070 31/24 Q1009=2024012419 - METAR SBFN 241900Z AUTO 08006KT 030V120 9999 ///////// 30/24 Q1011=2024012419 - METAR SBPB 241900Z 04012KT 9999 SCT020 30/24 Q1010=2024012419 - METAR SBGV 241900Z 15006KT 9999 SCT040 31/24 Q1006=2024012419 - METAR SBMS 241900Z 05014KT 9999 FEW030 SCT090 32/23 Q1009=2024012419 - METAR SBUF 241900Z 31006KT 9999 SCT022 BKN070 33/22 Q1008=2024012419 - METAR SBLE 241900Z AUTO 30005KT CAVOK 30/22 Q1009=2024012419 - METAR SBTV 241900Z 07008KT 9000 VCSH SCT020 FEW025TCU BKN100 31/26 Q1005=2024012419 - METAR SBAC 241900Z /////KT 9999 SCT025 31/23 Q1011=2024012419 - METAR SBJE 241900Z /////KT 9999 BKN020 ///// Q1010=2024012419 - METAR SNBR 241900Z AUTO 27006KT 250V310 9999 FEW035 27/22 Q1011=2024012419 - METAR SNTF 241900Z AUTO 36006KT 310V040 9999 FEW039 31/25 Q1006=2024012419 - METAR SDIY 241900Z AUTO VRB02KT 9999 -RA FEW029 28/24 Q1009=


