
2023062818 - TAF SBCY 281500Z 2818/2918 09005KT CAVOK TX33/2818Z TN18/2909Z BECMG 2820/2822 14005KT BECMG 2905/2907 30005KT BECMG 2914/2916 35005KT RMK  PHD=2023062818 - TAF SBCZ 281500Z 2818/2918 15005KT 9999 SCT030 TX33/2818Z TN22/2906Z BECMG 2821/2823 05005KT FEW030 BECMG 2900/2902 00000KT CAVOK PROB30 2911/2913 4000 BR BKN010 BECMG 2914/2916 32005KT SCT025 RMK  PHD=2023062818 - TAF SBPV 281500Z 2818/2918 04005KT 9999 FEW040 TX33/2818Z TN23/2907Z BECMG 2823/2901 00000KT CAVOK BECMG 2912/2914 11005KT FEW030 BECMG 2915/2917 06005KT FEW040 RMK  PHD=2023062818 - TAF SBRB 281500Z 2818/2906 09005KT 9999 SCT030 TX32/2818Z TN22/2906Z BECMG 2823/2901 00000KT CAVOK RMK  PHD=2023062818 - TAF SBTT 281500Z 2818/2918 15005KT 9999 SCT025 TX30/2818Z TN23/2911Z PROB30 2820/2822 TS BKN020 FEW025CB BECMG 2911/2913 25005KT 4000 BR BKN010 BECMG 2914/2916 16005KT 9999 NSW SCT025 RMK  PHD=2023062818 - TAF SBBE 281500Z 2818/2918 12005KT 9999 SCT035 FEW040TCU TX33/2818Z TN25/2907Z PROB30 2821/2823 07005KT TS BKN030 FEW035CB BECMG 2900/2902 08005KT FEW020 BECMG 2914/2916 12010KT SCT035 FEW040TCU RMK  PHD=2023062818 - TAF SBMQ 281500Z 2818/2918 08005KT 9999 SCT030 FEW035TCU TX32/2818Z TN24/2907Z PROB30 2822/2824 TS SCT030 FEW035CB BECMG 2901/2903 02005KT SCT010 BECMG 2905/2907 32005KT BECMG 2911/2913 08010KT SCT020 RMK  PHD=2023062818 - TAF SBSN 281500Z 2818/2918 08010KT 9999 FEW023 TX31/2818Z TN24/2907Z BECMG 2902/2904 16005KT CAVOK BECMG 2912/2914 08010KT SCT020 RMK  PHD=2023062818 - TAF SBBV 281500Z 2818/2918 11005KT 9999 SCT025 FEW035TCU TX31/2818Z TN24/2907Z BECMG 2821/2823 18005KT PROB30 2900/2902 TS SCT025 FEW035CB BECMG 2908/2910 09005KT FEW035TCU RMK  PHD=2023062818 - TAF SBEG 281500Z 2818/2918 10005KT 9999 SCT030 TX33/2818Z TN24/2907Z BECMG 2903/2905 36005KT CAVOK TEMPO 2906/2912 00000KT BECMG 2913/2915 10010KT SCT025 RMK  PHD=2023062818 - TAF SBCB 281437Z 2818/2906 10013KT CAVOK TX28/2818Z TN20/2906Z BECMG 2820/2823 06005KT RMK  PGU=2023062818 - TAF SBGL 281437Z 2818/2924 15007KT CAVOK TX30/2818Z TN18/2909Z BECMG 2821/2823 VRB03KT BECMG 2901/2903 34003KT 7000 NSC BECMG 2907/2909 4000 BR PROB40 2909/2911 1500 BR SCT006 BECMG 2912/2914 21007KT 8000 NSW BKN020 BECMG 2917/2919 17010KT 5000 RA BKN015 RMK  PGU=2023062818 - TAF SBMO 281437Z 2818/2918 07010KT 8000 SCT017 TN21/2908Z TX26/2918Z TEMPO 2818/2822 3000 RA BR BKN010 BECMG 2900/2902 23007KT SCT005 BKN016 TEMPO 2902/2906 12005KT 4000 RA BR BKN013 BKN025 BECMG 2906/2908 13005KT BKN020 BECMG 2912/2914 12010KT TEMPO 2915/2918 4000 RA BR BKN010 BKN017 RMK  PHP=2023062818 - TAF SBPB 281437Z 2818/2906 12007KT 9999 SCT020 TX33/2818Z TN25/2906Z BECMG 2820/2822 06005KT FEW020 RMK  PHP=2023062818 - TAF SBPS 281437Z 2818/2918 15010KT 5000 RA BKN012 FEW035TCU TN20/2909Z TX26/2917Z BECMG 2821/2823 19005KT BECMG 2902/2904 25007KT BKN015 TEMPO 2906/2912 4000 RA BR BKN010 OVC023 BECMG 2913/2915 15010KT RMK  PGU=2023062818 - TAF SBVT 281437Z 2818/2918 05010KT 9999 SCT030 TN17/2909Z TX28/2918Z BECMG 2821/2823 33003KT FEW030 BECMG 2902/2904 7000 NSC PROB40 2906/2912 5000 BR SCT010 BECMG 2915/2917 06010KT RMK  PGU=2023062818 - TAF SBFZ 281437Z 2818/2918 12013KT 7000 SCT025 FEW030TCU TN24/2909Z TX31/2917Z PROB40 2822/2902 17010KT 5000 TSRA BKN017 FEW025CB BECMG 2902/2904 16007KT BKN020 TEMPO 2904/2909 4000 RA BR BKN014 BECMG 2910/2912 15013KT SCT025 BECMG 2914/2916 12015KT 5000 SHRA SCT025 FEW030TCU RMK  PHP=2023062818 - TAF SBJP 281437Z 2818/2918 13015KT 8000 BKN017 FEW030TCU TN23/2908Z TX29/2917Z TEMPO 2818/2823 4000 SHRA BKN010 FEW025TCU BECMG 2823/2901 17010KT BKN020 PROB40 TEMPO 2904/2911 4000 RA BR BKN007 BECMG 2911/2913 13010KT TEMPO 2913/2917 4000 SHRA BKN010 FEW020TCU RMK  PHP=2023062818 - TAF SBPL 281437Z 2818/2918 18010KT 9999 SCT025 TX30/2818Z TN22/2909Z BECMG 2822/2824 20007KT CAVOK BECMG 2904/2906 18012KT SCT020 PROB40 2907/2910 BKN012 RMK  PHP=2023062818 - TAF SBRF 281437Z 2818/2918 15012KT 7000 BKN015 FEW025TCU TN23/2909Z TX28/2917Z TEMPO 2818/2823 4000 RA BR BKN010 BKN017 BECMG 2902/2904 22007KT BKN020 TEMPO 2906/2912 3000 RA BR BKN010 TEMPO 2912/2916 4000 SHRA BKN014 FEW025TCU BECMG 2916/2918 15010KT RMK  PHP=2023062818 - TAF SBSG 281437Z 2818/2918 14010KT 3000 SHRA BKN010 FEW030TCU TX29/2818Z TN23/2908Z BECMG 2823/2901 16005KT 8000 NSW BKN015 FEW030TCU TEMPO 2905/2914 14015KT 3000 RA BR BKN005 FEW020TCU BECMG 2916/2918 13010KT SCT020 RMK  PHP=2023062818 - TAF SBSL 281437Z 2818/2918 03005KT 8000 SCT025 FEW035TCU TN26/2909Z TX33/2917Z PROB40 TEMPO 2818/2902 4000 TSRA BKN017 FEW025CB BECMG 2902/2904 09007KT FEW025 BECMG 2909/2912 12008KT BKN017 BECMG 2916/2918 08010KT BKN025 FEW035TCU RMK  PHP=2023062818 - TAF SBCT 281500Z 2818/2918 25008KT CAVOK TX23/2818Z TN12/2903Z BECMG 2901/2903 10007KT 4000 BR SCT005 PROB40 2904/2910 0700 FG BKN002 BECMG 2910/2912 8000 BKN004 RMK  PEC=2023062818 - TAF SBPA 281500Z 2818/2918 20007KT 4000 RA BKN013 BKN030 TX17/2818Z TN10/2905Z BECMG 2819/2821 8000 NSW FEW015 BKN030 BECMG 2822/2823 20007KT SCT025 BECMG 2901/2903 CAVOK BECMG 2914/2915 9000 NSC RMK  PEC=2023062818 - TAF SBAF 281500Z 2818/2906 02005KT CAVOK TX32/2818Z TN15/2906Z BECMG 2822/2823 26003KT RMK  PEC=2023062818 - TAF SBAN 281500Z 2818/2906 03008KT CAVOK TX26/2818Z TN15/2906Z BECMG 2820/2821 10005KT RMK  PEC=2023062818 - TAF SBBG 281500Z 2818/2906 24008KT 9999 BKN015 TX16/2818Z TN07/2906Z BECMG 2901/2902 CAVOK RMK  PEC=2023062818 - TAF SBBI 281500Z 2818/2906 24008KT CAVOK TX23/2818Z TN12/2903Z BECMG 2901/2903 09007KT 3500 BR SCT003 BECMG 2904/2905 0600 FG BKN001 RMK  PEC=2023062818 - TAF SBCC 281500Z 2818/2906 08008KT 9999 SCT040 TX32/2818Z TN22/2906Z RMK  PEC=2023062818 - TAF SBCH 281500Z 2818/2906 35010KT 9999 SCT025 TX24/2818Z TN13/2906Z BECMG 2901/2902 11008KT BKN008 RMK  PEC=2023062818 - TAF SBCO 281500Z 2818/2906 19007KT 3500 RA BKN012 BKN030 TX17/2818Z TN10/2906Z BECMG 2819/2821 8000 NSW FEW015 BKN030 BECMG 2822/2823 20007KT SCT025 BECMG 2901/2903 CAVOK RMK  PEC=2023062818 - TAF SBFI 281500Z 2818/2918 12008KT CAVOK TX27/2818Z TN16/2908Z PROB30 2902/2905 8000 BKN008 BECMG 2905/2906 CAVOK BECMG 2914/2915 9000 NSC RMK  PEC=2023062818 - TAF SBFL 281500Z 2818/2918 16010KT CAVOK TX28/2818Z TN16/2906Z BECMG 2822/2823 20017G27KT BECMG 2900/2901 9999 SCT015 BECMG 2904/2905 19014KT BKN025 RMK  PEC=2023062818 - TAF SBGP 281500Z 2818/2906 24010KT CAVOK TX28/2818Z TN12/2906Z RMK  PEC=2023062818 - TAF SBGW 281500Z 2818/2906 05004KT CAVOK TX26/2818Z TN10/2906Z PROB30 2904/2906 00000KT 0800 FG BKN006 RMK  PEC=2023062818 - TAF SBJA 281500Z 2818/2906 23012KT 9999 BKN020 TX26/2818Z TN13/2906Z BECMG 2901/2902 23012G25KT RMK  PEC=2023062818 - TAF SBJV 281500Z 2818/2906 13007KT CAVOK TX27/2818Z TN16/2906Z BECMG 2900/2901 9999 BKN013 RMK  PEC=2023062818 - TAF SBMN 281500Z 2818/2906 10007KT 9999 SCT020 FEW035TCU TX33/2818Z TN24/2906Z BECMG 2819/2821 08003KT FEW023 RMK  PEC=2023062818 - TAF SBNF 281500Z 2818/2918 26007KT CAVOK TX27/2818Z TN16/2906Z BECMG 2822/2824 15016KT 9999 SCT020 BECMG 2901/2903 19008KT BKN025 RMK  PEC=2023062818 - TAF SBNM 281500Z 2818/2906 19010KT 9999 SCT030 TX20/2818Z TN11/2906Z BECMG 2901/2902 CAVOK RMK  PEC=2023062818 - TAF SBPF 281500Z 2818/2906 17007KT 8000 BKN006 TX22/2818Z TN10/2906Z BECMG 2901/2902 5000 BR BKN002 RMK  PEC=2023062818 - TAF SBPK 281500Z 2818/2918 23007KT 9999 SCT025 TX17/2818Z TN08/2906Z BECMG 2902/2903 CAVOK BECMG 2914/2915 9000 NSC RMK  PEC=2023062818 - TAF SBSC 281500Z 2818/2906 33007KT CAVOK TX31/2818Z TN17/2906Z BECMG 2818/2820 22004KT PROB40 2901/2906 5000 BR NSC RMK  PEC=2023062818 - TAF SBSM 281500Z 2818/2906 18007KT 9999 BKN012 TX17/2818Z TN09/2906Z BECMG 2901/2903 CAVOK RMK  PEC=2023062818 - TAF SBUG 281500Z 2818/2906 18008KT CAVOK TX18/2818Z TN09/2906Z BECMG 2821/2823 9000 NSC RMK  PEC=2023062818 - TAF SBYS 281500Z 2818/2906 01007KT CAVOK TX27/2818Z TN09/2906Z PROB40 2904/2906 00000KT 0800 FG BKN002 RMK  PEC=2023062818 - TAF SNCP 281500Z 2818/2906 25005KT 9999 SCT035 TX22/2818Z TN11/2906Z RMK  PEC=2023062818 - TAF SBGR 281500Z 2818/2924 30005KT CAVOK TX26/2818Z TN13/2909Z BECMG 2821/2823 03003KT BECMG 2908/2910 15008KT 5000 BR SCT010 BECMG 2912/2914 9999 NSW BKN022 BECMG 2918/2920 BKN010 RMK  PGQ=2023062818 - TAF SBKP 281500Z 2818/2918 33008KT CAVOK TX26/2818Z TN13/2910Z BECMG 2820/2822 00000KT BECMG 2822/2824 12005KT BECMG 2913/2915 15007KT SCT030 RMK  PGQ=2023062818 - TAF SBMG 281500Z 2818/2906 35010KT CAVOK TX27/2818Z TN15/2905Z BECMG 2820/2822 22005KT BECMG 2822/2824 07003KT RMK  PGQ=2023062818 - TAF SBPP 281500Z 2818/2918 36010KT CAVOK TX28/2819Z TN13/2910Z BECMG 2820/2822 00000KT BECMG 2904/2906 02005KT RMK  PGQ=2023062818 - TAF SBSJ 281500Z 2818/2906 33010KT CAVOK TX26/2818Z TN15/2905Z BECMG 2821/2823 07004KT BECMG 2900/2902 00000KT RMK  PGQ=2023062818 - TAF SBSP 281500Z 2818/2906 33007KT CAVOK TX26/2818Z TN16/2905Z BECMG 2820/2822 03005KT BECMG 2900/2902 36003KT RMK  PGQ=2023062818 - TAF SBRP 281630Z 2818/2906 27008KT CAVOK TX30/2818Z TN13/2905Z BECMG 2820/2822 22003KT BECMG 2823/2901 03003KT BECMG 2902/2904 10002KT RMK  PGE=2023062818 - TAF SBBH 281630Z 2818/2906 29006KT CAVOK TX27/2818Z TN13/2906Z BECMG 2819/2821 00000KT RMK  PGE=2023062818 - TAF SBBR 281630Z 2818/2918 15005KT CAVOK TX25/2818Z TN11/2910Z BECMG 2900/2902 25003KT BECMG 2905/2907 00000KT BECMG 2911/2913 09005KT BECMG 2915/2917 03005KT RMK  PGE=2023062818 - TAF SBCF 281630Z 2818/2918 25007KT 9999 FEW040 TX26/2818Z TN12/2909Z BECMG 2819/2821 30004KT CAVOK BECMG 2900/2903 15003KT BECMG 2915/2918 18004KT RMK  PGE=2023062818 - TAF SBCG 281630Z 2818/2918 24004KT 9999 FEW045 TX29/2818Z TN17/2909Z BECMG 2818/2820 CAVOK BECMG 2822/2824 09006KT BECMG 2909/2911 06010KT BECMG 2914/2916 33007KT RMK  PGE=2023062818 - TAF SBCR 281630Z 2818/2918 32005KT CAVOK TX31/2819Z TN21/2909Z BECMG 2907/2909 08008KT BECMG 2915/2917 03008KT RMK  PGE=2023062818 - TAF SBSV 281630Z 2818/2918 20008KT 8000 SCT017 FEW022TCU TX28/2818Z TN24/2908Z BECMG 2818/2820 9999 SCT020 BECMG 2820/2822 20003KT BECMG 2900/2902 VCSH FEW022 BECMG 2905/2907 25003KT NSW SCT020 BECMG 2909/2912 13007KT VCSH SCT022 FEW025TCU BECMG 2914/2916 NSW RMK  PGE=


