
2024012419 - METAR SBAN 241900Z 25004KT 5000 SHRA BR FEW006 SCT010 FEW030TCU 22/21 Q1013 RETSRA=2024012419 - METAR SBBH 241900Z 05008KT 9999 SCT035 26/22 Q1010=2024012419 - METAR SBBR 241900Z 30009KT 270V330 9999 FEW013 BKN020 BKN090 26/20 Q1012=2024012419 - METAR SBBW 241900Z 25004KT 9999 SCT020 33/24 Q1008=2024012419 - METAR SBCF 241900Z 02010KT 9999 VCSH FEW008 BKN030 FEW040TCU 25/22 Q1010=2024012419 - METAR SBGO 241900Z 30011KT 9999 FEW020 SCT030 FEW035TCU BKN080 27/22 Q1010=2024012419 - METAR SBIP 241900Z AUTO 21005KT 170V230 9999 FEW013 27/20 Q1007=2024012419 - METAR SBIT 241900Z 27009KT 9999 SCT030 FEW040TCU SCT090 31/23 Q1007=2024012419 - METAR SBLS 241900Z 04004KT 320V080 9999 2000SE -SHRA -RA SCT022 BKN033 24/22 Q1010=2024012419 - METAR SBMK 241900Z 05003KT 5000 -RA BR BKN010 OVC070 23/22 Q1010=2024012419 - METAR SBNV 241900Z 24009KT 9999 SCT025 FEW030TCU BKN070 26/20 Q1010=2024012419 - METAR SBPJ 241900Z 02008KT 340V070 5000 TSRA FEW006 BKN017 FEW026CB BKN033 25/25 Q1009=2024012419 - METAR SBYS 241900Z 19009KT 9999 SCT040 BKN083 28/19 Q1010=2024012419 - METAR SBAX 241900Z 20009KT 9999 SCT030 BKN090 25/23 Q1011=2024012419 - METAR SBBP 241900Z /////KT 9999 BKN028 FEW045TCU ///// Q////=2024012419 - METAR SBGP 241900Z 21012KT 9999 SCT035 BKN070 27/18 Q1010=2024012419 - METAR SBJD 241900Z 17009KT 140V220 9999 SCT036 FEW036TCU SCT056 24/18 Q1012=2024012419 - METAR SBKP 241900Z 20008KT 9999 BKN040 FEW050TCU 26/18 Q1011=2024012419 - METAR SBSJ 241900Z 14010KT 9999 BKN036 BKN050 24/19 Q1012=2024012419 - METAR SBRP 241900Z 16006KT 9999 SCT040 29/18 Q1008=2024012419 - METAR SBSR 241900Z 24010KT 9999 BKN030 30/18 Q1009=2024012419 - METAR SBUL 241900Z 22014KT 9999 SCT025 FEW035TCU SCT070 27/19 Q1010=2024012419 - METAR SBUR 241900Z 21011KT 9999 BKN030 27/20 Q1010=2024012419 - METAR SBVG 241900Z 35006KT 9999 SCT035 26/20 Q1012=2024012419 - METAR SDAM 241900Z 26010KT 9999 BKN045 FEW048TCU 27/17 Q1010=2024012419 - METAR SWLC 241900Z AUTO 20008KT CAVOK 26/20 Q1010=2024012419 - METAR SBBU 241900Z 18012KT 9999 SCT037 30/19 Q1010=2024012419 - METAR SBAE 241900Z 17009KT 9999 SCT040 28/18 Q1010=


