
2024012419 - METAR SUMU 241900Z 12016KT CAVOK 25/18 Q1019 NOSIG=2024012419 - METAR SGAS 241900Z 18007KT 140V230 9999 BKN033 33/17 Q1011=2024012419 - METAR SGAS 241900Z 18007KT 140V230 9999 BKN033 33/17 Q1011=2024012419 - METAR SBUG 241900Z 12008KT CAVOK 30/17 Q1014=2024012419 - METAR SBBG 241900Z 10010KT 9999 FEW036 28/12 Q1016=2024012419 - METAR SBPK 241900Z 11016KT 9999 BKN045 27/17 Q1018=2024012419 - METAR SBSM 241900Z 10013KT 9999 SCT040 27/17 Q1015=2024012419 - METAR SBPF 241900Z 11008KT 9999 FEW025 BKN080 18/15 Q1016 RETS=2024012419 - METAR SBPA 241900Z 11007KT 080V150 8000 VCSH SCT024 FEW035TCU SCT050 BKN070 23/20 Q1017=2024012419 - METAR SBCO 241900Z 11009KT 4500 -RA SCT023 FEW040TCU BKN060 23/22 Q1017=2024012419 - METAR SBCX 241900Z 18006KT 5000 1000S -RA BCFG BKN002 BKN006 16/16 Q1019=2024012419 - METAR SBJA 241900Z 03008KT 8000 BKN020 FEW030TCU BKN100 21/19 Q1018=2024012419 - METAR SBCH 241900Z 12008KT 9999 SCT020 25/18 Q1015=2024012419 - METAR SBFL 241900Z 18004KT 140V200 9999 -RA FEW012 BKN035 OVC076 23/20 Q1016=2024012419 - METAR SBNF 241900Z 22005KT 170V270 9999 -RA FEW012 SCT030 BKN052 22/22 Q1015 RERA=2024012419 - METAR SBJV 241900Z 14006KT 090V180 9999 SCT012 BKN035 23/18 Q1015=2024012419 - METAR SBCT 241900Z 13018G28KT 100V160 9999 BKN010 BKN020 17/13 Q1017=2024012419 - METAR SBBI 241900Z 13013KT 090V180 2000 -RA BKN007 SCT020 16/16 Q1017 REDZ=2024012419 - METAR COR SBBI 241900Z 13013KT 090V180 2000 -RA BKN007 SCT020 16/16 Q1017=2024012419 - METAR SBFI 241900Z 16007KT 9999 SCT040 29/19 Q1011=2024012419 - METAR SBPG 241900Z 18010KT 9999 FEW016 SCT040 21/17 Q1015=2024012419 - METAR SSGG 241900Z 12013KT 9999 TS VCSH SCT025 FEW035CB 21/15 Q1016=2024012419 - METAR SBPO 241900Z 15010KT 9999 SHRA TS BKN025 FEW040CB 19/16 Q1015=2024012419 - METAR SBCA 241900Z 17012KT 160V240 9999 FEW020 SCT025TCU 25/17 Q1014=2024012419 - METAR SBPP 241900Z 21010KT 9999 BKN020 27/17 Q1012=2024012419 - METAR SBDB 241900Z AUTO 22007KT 150V270 CAVOK 32/18 Q1010=2024012419 - METAR SBCG 241900Z 21007KT 9999 BKN040 SCT100 30/19 Q1011=2024012419 - METAR SBCR 241900Z 20005KT 140V240 CAVOK 33/20 Q1008=2024012419 - METAR SBTG 241900Z 25009KT 9999 BKN030 28/19 Q1009=2024012419 - METAR SBMG 241900Z 18009KT 140V200 9999 SCT040 28/17 Q1010=2024012419 - METAR SBLO 241900Z 12004KT 9999 SCT040 29/17 Q1011=2024012419 - METAR SBDN 241900Z 14009KT CAVOK 29/17 Q1010=2024012419 - METAR SBSP 241900Z 17013KT 9999 SCT015 BKN019 22/17 Q1014=2024012419 - METAR SBMT 241900Z 14009KT 090V180 9999 BKN025 BKN080 23/17 Q1013=2024012419 - METAR SBGR 241900Z 17006KT 9999 BKN020 23/18 Q1013=2024012419 - METAR SBST 241900Z 18006KT 3000 -RA BR FEW014 OVC035 21/21 Q1010=2024012419 - METAR SBTA 241900Z 20006KT 9999 BKN034 24/18 Q1010=2024012419 - METAR SBGW 241900Z 36003KT 9999 BKN035 FEW040TCU 25/17 Q1011=2024012419 - METAR SBSC 241900Z 14008KT 4000 -DZ BR BKN008 OVC025 23/21 Q1010=2024012419 - METAR SBJR 241900Z 23002KT 4000 -DZ BR BKN005 SCT010 OVC060 23/23 Q1010=2024012419 - METAR SBAF 241900Z 21006KT 4000 -DZ BR BKN009 BKN022 OVC030 23/22 Q1010=2024012419 - METAR SBRJ 241900Z 18008KT 4000 -RADZ BR BKN007 OVC011 23/22 Q1009=2024012419 - METAR SBGL 241900Z 04004KT 1300 R28/1300 R10/1300 R33/1300 R15/1900 -RA BR BKN004 BKN005 OVC011 23/21 Q1010=2024012419 - METAR SBBQ 241900Z 15005KT 120V190 9999 OVC007 19/17 Q1015=2024012419 - METAR SBZM 241900Z 14005KT 9999 BKN030 BKN090 24/20 Q1010=2024012419 - METAR SBES 241900Z 24005KT 200V310 9999 FEW006 SCT009 BKN030 24/22 Q1009=2024012419 - METAR SBCB 241900Z 20010KT 9999 BKN012 OVC025 24/22 Q1009=2024012419 - METAR SBME 241900Z 24006KT 8000 FEW008 BKN015 OVC040 25/22 Q1009=2024012419 - METAR SBCP 241900Z 24008KT 9000 BKN006 OVC080 24/23 Q1008=2024012419 - METAR SBFS 241900Z 21013KT 4000 -RA BR BKN007 OVC080 24/23 Q1008=2024012419 - METAR SDAG 241900Z AUTO /////KT ///V/// //// // ///////// ///// Q////=2024012419 - METAR SBMI 241900Z 20008KT 2000 RA BR SCT003 OVC015 22/22 Q1010=2024012419 - METAR SDCO 241900Z 16010KT 130V200 9999 SCT040 SCT070 25/17 Q1012=2024012419 - METAR SBJH 241900Z 10008KT 9999 BKN035 FEW040TCU BKN100 25/17 Q1012=


