
2024012418 - TAF SBAF 241500Z 2418/2506 12006KT 8000 RA BKN012 BKN020 TX23/2418Z TN22/2506Z TEMPO 2418/2424 13015KT 4000 SHRA BKN008 FEW030TCU PROB40 TEMPO 2502/2506 1200 RA BR BKN004 RMK  PDG=2024012418 - TAF SBAN 241500Z 2418/2506 27007KT 9999 SCT020 TX27/2418Z TN26/2506Z TEMPO 2418/2424 6000 TSRA BKN010 FEW030CB PROB40 TEMPO 2502/2506 1200 RA BR BKN008 RMK  PDG=2024012418 - TAF SBBG 241500Z 2418/2506 10013KT 9999 FEW035 TX28/2418Z TN18/2506Z TEMPO 2418/2421 12013G23KT RMK  PDG=2024012418 - TAF SBBI 241500Z 2418/2506 13010KT 9999 BKN010 TX19/2418Z TN16/2506Z TEMPO 2418/2422 8000 RA BKN008 BECMG 2422/2424 3000 DZ BR BKN004 RMK  PDG=2024012418 - TAF SBCC 241500Z 2418/2506 18007KT 9999 SCT025 TX31/2418Z TN23/2506Z TEMPO 2418/2424 8000 TSRA BKN020 FEW035CB RMK  PDG=2024012418 - TAF SBCH 241500Z 2418/2506 08012KT 9999 SCT030 TX25/2418Z TN16/2506Z TEMPO 2418/2422 09012G25KT 8000 TSRA BKN020 FEW030CB RMK  PDG=2024012418 - TAF SBCO 241500Z 2418/2506 11013KT 9999 SCT035 TX29/2418Z TN18/2506Z TEMPO 2418/2421 11015G30KT BECMG 2422/2424 CAVOK RMK  PDG=2024012418 - TAF SBCT 241500Z 2418/2518 13010KT 9999 BKN010 TX17/2418Z TN15/2509Z TEMPO 2418/2424 8000 RA BKN008 BECMG 2500/2502 3000 DZ BR BKN004 BECMG 2510/2512 6000 RA BKN008 RMK  PDG=2024012418 - TAF SBFI 241500Z 2418/2518 12012KT 9999 SCT030 TX29/2418Z TN20/2509Z BECMG 2421/2423 CAVOK BECMG 2515/2516 9999 SCT030 FEW035TCU RMK  PDG=2024012418 - TAF SBFL 241500Z 2418/2518 13015KT 9999 SCT015 TX26/2418Z TN20/2508Z PROB40 2418/2422 12012G22KT 8000 SHRA BKN015 FEW030TCU BECMG 2422/2423 8000 RA BKN012 BKN020 TEMPO 2506/2518 18012G22KT 4000 TSRA BKN008 BKN015 FEW030CB RMK  PDG=2024012418 - TAF SBGP 241500Z 2418/2506 17005KT 9999 BKN020 TX26/2418Z TN20/2506Z TEMPO 2418/2421 8000 TSRA SCT015 FEW030CB RMK  PDG=2024012418 - TAF SBGW 241500Z 2418/2506 01005KT 8000 RA SCT006 BKN010 TX22/2418Z TN20/2506Z TEMPO 2418/2424 8000 SHRA BKN008 FEW030TCU PROB40 TEMPO 2502/2506 2000 BR BKN006 RMK  PDG=2024012418 - TAF SBJA 241500Z 2418/2506 09008KT 9999 SCT020 TX24/2418Z TN20/2506Z TEMPO 2418/2424 10011G23KT 4000 SHRA BKN010 FEW025TCU BECMG 2500/2502 6000 SHRA BKN008 FEW025TCU RMK  PDG=2024012418 - TAF SBJV 241500Z 2418/2506 08008KT 8000 BKN012 BKN020 TX23/2418Z TN19/2506Z TEMPO 2418/2424 3000 TSRA BKN006 FEW030CB BECMG 2500/2502 4000 SHRA BKN006 FEW025TCU RMK  PDG=2024012418 - TAF SBMN 241500Z 2418/2506 10008KT 9999 SCT020 TX32/2418Z TN26/2506Z TEMPO 2418/2424 6000 TSRA SCT025 FEW035CB TEMPO 2500/2506 5000 TSRA BKN015 FEW035CB RMK  PDG=2024012418 - TAF SBNF 241500Z 2418/2518 14013KT 8000 BKN012 BKN025 TX24/2418Z TN20/2508Z PROB40 2418/2422 16012G22KT 6000 SHRA BKN012 FEW030TCU BECMG 2422/2423 6000 RA BKN010 BKN020 TEMPO 2506/2516 4000 TSRA BKN007 BKN015 FEW025CB RMK  PDG=2024012418 - TAF SBNM 241500Z 2418/2506 11013KT 9999 SCT030 TX29/2418Z TN19/2506Z PROB30 2419/2422 12013G23KT 8000 SHRA BKN020 FEW030TCU BECMG 2423/2424 CAVOK RMK  PDG=2024012418 - TAF SBPA 241500Z 2418/2518 11013KT 9999 SCT035 TX28/2418Z TN18/2509Z TEMPO 2418/2421 11015G30KT BECMG 2422/2424 CAVOK BECMG 2510/2512 9999 SCT030 RMK  PDG=2024012418 - TAF SBPF 241500Z 2418/2506 09013KT 9999 SCT030 TX24/2418Z TN16/2506Z PROB40 2418/2422 12013G23KT 8000 TSRA BKN025 FEW030CB BECMG 2422/2424 CAVOK RMK  PDG=2024012418 - TAF SBPK 241500Z 2418/2518 09013KT 9999 SCT040 TX28/2418Z TN20/2509Z TEMPO 2418/2421 10015G25KT RMK  PDG=2024012418 - TAF SBSC 241500Z 2418/2506 12006KT 8000 RA BKN012 BKN020 TX23/2418Z TN21/2506Z TEMPO 2418/2424 14012KT 4000 SHRA BKN006 FEW030TCU PROB40 TEMPO 2502/2506 2000 RA BR BKN007 RMK  PDG=2024012418 - TAF SBSM 241500Z 2418/2506 12012KT 9999 SCT035 TX27/2419Z TN19/2506Z TEMPO 2418/2421 12015G25KT BECMG 2421/2423 CAVOK RMK  PDG=2024012418 - TAF SBUG 241500Z 2418/2506 11013KT CAVOK TX28/2419Z TN18/2506Z TEMPO 2418/2421 12013G23KT RMK  PDG=2024012418 - TAF SBYS 241500Z 2418/2506 17005KT 9999 SCT015 BKN020 TX23/2418Z TN22/2506Z PROB30 TEMPO 2418/2421 17012G25KT 8000 TSRA BKN010 FEW030CB RMK  PDG=2024012418 - TAF SNCP 241500Z 2418/2506 07012KT 6000 RA BKN006 BKN020 TX18/2418Z TN14/2506Z TEMPO 2418/2423 08012G22KT 4000 TSRA BKN010 BKN020 FEW030CB RMK  PDG=2024012418 - TAF SBFZ 241530Z 2418/2518 07010KT 9999 BKN025 TN28/2506Z TX32/2516Z BECMG 2500/2502 08005KT SCT020 BECMG 2512/2514 07010KT BKN025 RMK  PGY=2024012418 - TAF SBGL 241530Z 2418/2524 15010KT 9000 BKN010 TN20/2506Z TX23/2516Z PROB30 TEMPO 2418/2423 5000 RA BKN015 BECMG 2500/2502 09005KT PROB30 TEMPO 2503/2512 4000 RA BR BKN010 BECMG 2514/2516 14010KT SCT015 BECMG 2521/2523 12005KT RMK  PGY=2024012418 - TAF SBJP 241530Z 2418/2518 02010KT 9999 FEW025 TN25/2508Z TX32/2515Z BECMG 2500/2502 28005KT BECMG 2510/2512 03010KT SCT030 RMK  PGY=2024012418 - TAF SBMO 241530Z 2418/2518 09015KT 9999 FEW035 TN25/2507Z TX36/2515Z BECMG 2421/2423 06010KT CAVOK BECMG 2505/2507 01005KT BECMG 2510/2512 03010KT SCT030 BECMG 2516/2518 09015KT FEW035 RMK  PGY=2024012418 - TAF SBPB 241530Z 2418/2506 05015KT 9999 BKN020 TX32/2418Z TN30/2506Z BECMG 2500/2502 03005KT RMK  PGY=2024012418 - TAF SBPL 241530Z 2418/2518 21005KT 9999 SCT020 FEW025TCU TX30/2418Z TN24/2506Z PROB30 2500/2506 TS BKN020 FEW035CB BECMG 2507/2509 07005KT BKN020 BECMG 2514/2516 21005KT BKN020 FEW025TCU RMK  PGY=2024012418 - TAF SBPS 241530Z 2418/2518 02010KT 7000 SHRA BKN010 FEW025TCU TN25/2507Z TX27/2515Z BECMG 2500/2502 01005KT 9999 NSW SCT020 PROB30 TEMPO 2508/2512 4000 RA BR BKN015 BECMG 2514/2516 03010KT 6000 SHRA FEW020 FEW025TCU RMK  PGY=2024012418 - TAF SBRF 241530Z 2418/2518 06015KT 9999 SCT025 TN26/2507Z TX32/2516Z BECMG 2501/2503 31005KT SCT023 BECMG 2510/2512 04010KT SCT025 BECMG 2514/2516 06015KT SCT025 FEW030TCU RMK  PGY=2024012418 - TAF SBSG 241530Z 2418/2518 06015KT 9999 SCT030 TN25/2507Z TX32/2515Z BECMG 2506/2508 21005KT SCT017 BECMG 2510/2512 05010KT BKN025 BECMG 2514/2516 06010KT SCT030 FEW035TCU RMK  PGY=2024012418 - TAF SBSL 241530Z 2418/2518 03015KT 9999 BKN030 TN27/2507Z TX31/2515Z BECMG 2500/2502 05005KT FEW020 BECMG 2512/2514 05015KT BKN025 RMK  PGY=2024012418 - TAF SBVT 241530Z 2418/2518 16015KT 9999 SCT010 FEW025TCU TN22/2506Z TX27/2516Z BECMG 2418/2420 20010KT 4000 RA BR BKN010 TEMPO 2500/2506 23005KT 5000 RA SCT010 BECMG 2512/2514 17015KT FEW019 FEW025TCU RMK  PGY=2024012418 - TAF SBCB 241530Z 2418/2506 13010KT 7000 SCT010 TX23/2418Z TN21/2506Z PROB30 TEMPO 2418/2424 5000 RA BKN010 BECMG 2500/2502 03005KT RMK  PGY=2024012418 - TAF SBGR 241600Z 2418/2524 15009KT 9999 BKN015 TX22/2418Z TN17/2509Z PROB30 2418/2420 6000 TSRA BKN011 FEW040CB BECMG 2420/2422 13006KT BKN010 BECMG 2500/2502 16008KT BKN030 PROB40 2506/2511 6000 DZ BKN013 BECMG 2511/2513 BKN020 PROB40 2514/2518 6000 DZ BKN013 BECMG 2518/2520 BKN016 RMK  PGE=2024012418 - TAF SBKP 241600Z 2418/2518 15018KT 9999 SCT025 TX27/2418Z TN18/2509Z BECMG 2420/2422 15015KT BKN020 BECMG 2503/2505 14012KT FEW020 BECMG 2512/2515 15018KT SCT040 PROB40 2515/2518 VCSH RMK  PGE=2024012418 - TAF SBSJ 241600Z 2418/2506 15015KT 9999 BKN025 TX25/2418Z TN18/2505Z PROB30 2418/2422 7000 TSRA BKN013 FEW040CB BECMG 2422/2424 15008KT 7000 RA BKN014 BECMG 2500/2502 8000 NSW BECMG 2503/2505 15005KT RMK  PGE=2024012418 - TAF SBSP 241600Z 2418/2506 16013KT 9999 BKN017 TX20/2418Z TN17/2505Z PROB30 2418/2420 7000 TSRA OVC013 FEW040CB BECMG 2420/2422 OVC009 PROB30 2500/2503 6000 RA BECMG 2503/2505 15010KT BKN030 RMK  PGE=2024012418 - TAF SBBH 241630Z 2418/2506 07008KT 9999 SCT030 FEW040TCU TX25/2418Z TN19/2505Z TEMPO 2418/2421 12005KT 8000 TS SCT035 FEW045CB BECMG 2421/2423 10004KT 8000 SCT020 RMK  PGL=2024012418 - TAF SBBR 241630Z 2418/2518 33010KT 9999 SCT030 FEW035TCU TX25/2418Z TN20/2508Z TEMPO 2418/2422 4000 TSRA SCT025 FEW045CB BECMG 2422/2424 29008KT BKN020 PROB30 2506/2509 BKN010 BECMG 2509/2511 SCT015 BECMG 2513/2515 28006KT SCT030 FEW040TCU RMK  PGL=2024012418 - TAF SBCF 241630Z 2418/2518 13005KT 9999 SCT030 FEW040TCU TN21/2509Z TX28/2518Z TEMPO 2419/2424 8000 TS SCT035 FEW040CB BECMG 2500/2502 09005KT SCT017 PROB30 2506/2510 4000 BR BKN005 BECMG 2510/2512 13004KT SCT030 RMK  PGL=2024012418 - TAF SBCG 241630Z 2418/2518 30007KT 9999 BKN025 FEW040TCU TN20/2507Z TX29/2517Z BECMG 2422/2424 16006KT CAVOK BECMG 2513/2515 FEW030 RMK  PGL=2024012418 - TAF SBCR 241630Z 2418/2518 22006KT 9999 FEW030 TN25/2508Z TX34/2517Z BECMG 2422/2424 19006KT CAVOK BECMG 2510/2512 17003KT BECMG 2513/2515 19003KT FEW025 RMK  PGL=2024012418 - TAF SBSV 241630Z 2418/2518 01010KT 9999 SCT017 TN25/2508Z TX30/2517Z TEMPO 2503/2509 4000 SHRA SCT015 FEW030TCU TEMPO 2509/2512 4000 RA SCT013 BECMG 2512/2514 35010KT SCT020 FEW025TCU TEMPO 2515/2518 7000 SHRA RMK  PGL=2024012418 - TAF SBMG 241600Z 2418/2506 17010KT 9999 BKN035 TX26/2418Z TN17/2505Z PROB30 2418/2421 VCSH FEW045TCU BECMG 2421/2423 13010KT FEW035 RMK  PGE=2024012418 - TAF SBPP 241600Z 2418/2518 15008KT 9999 SCT020 TX27/2418Z TN19/2509Z PROB30 2418/2421 FEW025TCU BECMG 2422/2424 12008KT CAVOK PROB30 2505/2512 OVC005 BECMG 2513/2515 SCT020 PROB30 2516/2518 SCT020 FEW025TCU RMK  PGE=2024012418 - TAF SBRP 241600Z 2418/2506 18008KT 9999 BKN040 TX29/2418Z TN19/2505Z PROB40 2419/2421 TS SHRA BKN040 FEW045CB BECMG 2421/2423 16006KT FEW040 RMK  PGE=2024012418 - TAF SBBE 241700Z 2418/2518 01008KT 8000 BKN025 FEW030TCU TN25/2509Z TX31/2515Z TEMPO 2418/2422 04012KT 3000 TSRA BKN012 FEW025CB BECMG 2422/2424 06005KT 9999 SCT035 BECMG 2514/2516 35008KT 8000 BKN025 FEW030TCU RMK  PGA=2024012418 - TAF SBBV 241700Z 2418/2518 06013KT 9999 SCT040 TX35/2419Z TN26/2509Z BECMG 2418/2421 09010KT CAVOK BECMG 2510/2512 SCT040 RMK  PGA=2024012418 - TAF SBCY 241700Z 2418/2518 33010KT 7000 SCT010 TX25/2418Z TN23/2509Z PROB30 TEMPO 2418/2421 4000 RA BKN012 FEW025TCU BECMG 2421/2423 11005KT BKN012 TEMPO 2510/2514 24007KT BKN007 BECMG 2514/2516 33010KT BKN020 FEW030TCU PROB40 2516/2518 4000 TSRA BKN012 FEW025CB RMK  PGA=2024012418 - TAF SBCZ 241700Z 2418/2518 34005KT 9999 SCT023 TX31/2418Z TN25/2508Z TEMPO 2418/2422 4000 TSRA BKN015 FEW025CB BECMG 2422/2424 03005KT BKN020 PROB40 2508/2512 4000 BR BKN005 RMK  PGA=2024012418 - TAF SBEG 241700Z 2418/2518 05005KT 9999 SCT020 FEW030TCU TX33/2418Z TN25/2509Z PROB40 2418/2422 35010KT 4000 TSRA BKN017 FEW030CB BECMG 2422/2424 08005KT TEMPO 2500/2504 35010KT 4000 TSRA BKN017 FEW030CB TEMPO 2508/2512 36005KT BKN007 BECMG 2512/2514 SCT020 BECMG 2514/2516 04007KT SCT025 FEW030TCU PROB40 2516/2518 01007KT 4000 TSRA BKN017 FEW030CB RMK  PGA=2024012418 - TAF SBMQ 241700Z 2418/2518 11010KT 9999 SCT023 FEW030TCU TX32/2418Z TN25/2509Z TEMPO 2418/2421 4000 TSRA BKN017 FEW030CB BECMG 2422/2424 05005KT SCT016 BECMG 2504/2506 7000 BKN010 PROB40 TEMPO 2506/2512 33005KT 4000 RA BR BKN006 BECMG 2512/2514 06007KT 9999 BKN020 BECMG 2515/2517 10010KT SCT023 FEW030TCU RMK  PGA=2024012418 - TAF SBPV 241700Z 2418/2518 34005KT 7000 BKN017 FEW030TCU TN25/2510Z TX33/2517Z TEMPO 2418/2424 05007KT 3000 TSRA BKN010 FEW030CB TEMPO 2506/2512 30005KT BKN006 BECMG 2515/2517 27005KT 4000 TSRA BKN017 FEW030CB RMK  PGA=2024012418 - TAF SBRB 241700Z 2418/2506 30010KT 9999 BKN020 FEW030TCU TX33/2418Z TN25/2506Z PROB40 2418/2422 4500 TSRA BKN025 FEW030CB BECMG 2422/2424 SCT020 RMK  PGA=2024012418 - TAF SBSN 241700Z 2418/2518 03007KT 7000 SCT020 FEW023TCU TX32/2418Z TN26/2509Z BECMG 2419/2421 11005KT 4500 TSRA BKN020 FEW030CB PROB40 2422/2424 15005KT 9999 NSW FEW020 PROB40 2507/2512 05008KT 4000 SHRA BKN020 FEW030TCU PROB40 2512/2514 03007KT 5000 SHRA BKN020 FEW030TCU BECMG 2515/2517 01006KT 9999 NSW SCT020 FEW023TCU RMK  PGA=2024012418 - TAF SBTT 241700Z 2418/2518 31005KT 9999 SCT020 TX30/2419Z TN24/2509Z PROB40 2419/2423 04007KT 4000 TSRA BKN015 FEW025CB PROB40 2509/2513 4000 BR BKN007 BECMG 2513/2515 SCT030 FEW035TCU RMK  PGA=


