
2023062821 - METAR SBFZ 282100Z 12014KT 9999 SCT030 28/24 Q1013=2023062821 - METAR SBSG 282100Z 13006KT 090V180 6000 VCSH BKN008 BKN030 BKN060 23/22 Q1014=2023062821 - METAR SBNT 282100Z 12009KT 9999 -RA FEW008 BKN023 BKN050 23/23 Q1014=2023062821 - METAR SBJP 282100Z 11004KT 9999 -RA BKN014 BKN070 24/24 Q1015=2023062821 - METAR SBKG 282100Z 14008KT 1000 TSRA BKN007 SCT020CB OVC070 21/20 Q1017=2023062821 - SPECI SBKG 282127Z 12011KT 5000 2000SE -RA BKN006 BKN070 20/19 Q1018 RETSRA=2023062821 - METAR SBRF 282100Z 14009KT 9999 SCT020 BKN060 27/23 Q1015=2023062821 - METAR SBMO 282100Z 31002KT 9999 SCT019 BKN070 23/22 Q1016=2023062821 - METAR SBAR 282100Z 14006KT 9999 FEW013 SCT025 BKN100 25/22 Q1016=2023062821 - METAR SBPL 282100Z 17010KT 9999 FEW035 28/15 Q1016=2023062821 - METAR SBJU 282100Z 19005KT 9999 BKN020 27/20 Q1018=2023062821 - METAR SBSV 282100Z 13006KT 9999 SCT018 26/22 Q1017=2023062821 - METAR SBIL 282100Z 28003KT 9999 FEW025 OVC060 24/24 Q1018=2023062821 - METAR SBPS 282100Z 12006KT 090V170 6000 BKN015 22/21 Q1019=2023062821 - METAR SBVC 282100Z 13014KT 9999 FEW040 20/16 Q1022=2023062821 - METAR SBVT 282100Z 03006KT CAVOK 23/20 Q1019=2023062821 - METAR SBTE 282100Z 19006KT CAVOK 31/21 Q1011=2023062821 - METAR SBFN 282100Z AUTO 09007KT 070V130 9999 FEW019 SCT038 25/23 Q1014=2023062821 - METAR SBPB 282100Z 06005KT 9999 FEW020 ///// Q1012=2023062821 - METAR SBGV 282100Z 23003KT CAVOK 23/14 Q1019=2023062821 - METAR SBMS 282100Z 05003KT 9999 BKN020 BKN090 27/25 Q1013=2023062821 - METAR SBLE 282100Z AUTO 31002KT CAVOK 21/18 Q1018=2023062821 - METAR SBAC 282100Z /////KT 9999 SCT020 BKN090 26/23 Q1014=2023062821 - METAR SBJE 282100Z 05007KT 9999 FEW020TCU SCT020 31/24 Q1012=2023062821 - METAR SNBR 282100Z AUTO 18005KT CAVOK 26/12 Q1019=2023062821 - METAR SNTF 282100Z AUTO 22003KT 9999 SCT037 BKN048 ///// Q////=2023062821 - METAR SDIY 282100Z AUTO /////KT ///V/// //// // ///////// ///// Q////=2023062821 - METAR SWKQ 282100Z AUTO 15005KT CAVOK 30/15 Q1015=


