
2023062821 - METAR SAEZ 282100Z 24006KT CAVOK 13/02 Q1025 NOSIG=2023062821 - METAR COR SAEZ 282100Z 24006KT CAVOK 13/02 Q1025 NOSIG RMK  PP000=2023062821 - METAR SUMU 282100Z 31005KT CAVOK 10/04 Q1023 NOSIG=2023062821 - METAR SGAS 282100Z 20018KT 9999 BKN017 22/17 Q1021=2023062821 - METAR SARE 282100Z 17011KT 9999 SCT010 OVC030 15/13 Q1023=2023062821 - METAR COR SARE 282100Z 17011KT 9999 SCT010 OVC030 15/13 Q1023 RMK  PP///=2023062821 - METAR SBUG 282100Z 19008KT CAVOK 15/09 Q1025=2023062821 - METAR SBPK 282100Z 25005KT 9999 SCT020 13/10 Q1023=2023062821 - METAR SBSM 282100Z 18004KT 140V240 9999 BKN027 16/12 Q1023=2023062821 - METAR SBPF 282100Z 00000KT 9000 -RA FEW005 BKN030 14/14 Q1022=2023062821 - METAR SBPA 282100Z 21007KT 180V250 9999 FEW020 OVC040 16/13 Q1022=2023062821 - METAR SBCO 282100Z 20005KT 160V240 9999 BKN015 OVC035 16/14 Q1022=2023062821 - SPECI SBCX 282105Z 21006KT 0000 FG VV000 11/11 Q1023=2023062821 - METAR SBJA 282100Z 24016KT 9999 BKN020 19/16 Q1020=2023062821 - METAR SBCH 282100Z 22007KT 9999 SCT020 BKN080 20/17 Q1022=2023062821 - METAR SBFL 282100Z 15009KT 120V190 CAVOK 22/16 Q1018=2023062821 - METAR SBNF 282100Z 27008KT CAVOK 22/16 Q1017=2023062821 - METAR SBJV 282100Z 13005KT CAVOK 21/19 Q1016=2023062821 - METAR SBCT 282100Z 27006KT CAVOK 20/10 Q1022=2023062821 - METAR SBBI 282100Z 26002KT CAVOK 19/11 Q1022=2023062821 - METAR SBFI 282100Z 16004KT CAVOK 24/18 Q1019=2023062821 - METAR SBPO 282100Z 24005KT 9999 SCT030 21/13 Q1022=2023062821 - METAR SBCA 282100Z 27004KT CAVOK 21/14 Q1022=2023062821 - METAR SBPP 282100Z 21002KT CAVOK 25/13 Q1021=2023062821 - METAR SBCG 282100Z 23006KT CAVOK 24/16 Q1020=2023062821 - METAR SBCR 282100Z 02001KT CAVOK 29/20 Q1016=2023062821 - METAR SBTG 282100Z 16002KT 9999 FEW030 27/17 Q1019=2023062821 - METAR SBMG 282100Z 00000KT 9999 FEW040 24/15 Q1020=2023062821 - METAR SBLO 282100Z 27003KT 9999 FEW040 25/14 Q1021=2023062821 - METAR SBDN 282100Z 00000KT CAVOK 25/15 Q1019=2023062821 - METAR SBSP 282100Z 30006KT 240V360 CAVOK 23/10 Q1022=2023062821 - METAR SBMT 282100Z 28005KT CAVOK 21/11 Q1021=2023062821 - METAR SBGR 282100Z 30005KT CAVOK 22/12 Q1022=2023062821 - METAR SBST 282100Z 00000KT 6000 FEW033 22/18 Q1017=2023062821 - SPECI SBST 282130Z VRB01KT 5000 BR FEW029 BKN062 20/18 Q1018=2023062821 - METAR SBTA 282100Z VRB01KT CAVOK 21/15 Q1020=2023062821 - METAR SBGW 282100Z 35004KT 310V020 CAVOK 20/12 Q1020=2023062821 - METAR SBSC 282100Z 16003KT CAVOK 23/20 Q1017=2023062821 - METAR SBJR 282100Z 00000KT CAVOK 20/19 Q1017=2023062821 - METAR SBAF 282100Z 25004KT CAVOK 25/15 Q1018=2023062821 - METAR SBRJ 282100Z 19007KT CAVOK 24/17 Q1017=2023062821 - METAR SBGL 282100Z 13010KT CAVOK 24/17 Q1017=2023062821 - METAR SBZM 282100Z 27002KT CAVOK 21/17 Q1020=2023062821 - METAR SBES 282100Z 04002KT CAVOK 21/19 Q1018=2023062821 - METAR SBCB 282100Z 12003KT CAVOK 22/20 Q1018=2023062821 - METAR SBME 282100Z 09006KT CAVOK 24/22 Q1017=2023062821 - METAR SBCP 282100Z 03010KT CAVOK 24/20 Q1018=2023062821 - METAR SBFS 282100Z 03005KT CAVOK 24/19 Q1018=2023062821 - METAR SDAG 282100Z AUTO 08003KT 060V120 //// // NCD 22/19 Q1018=2023062821 - METAR SBMI 282100Z 26005KT CAVOK 22/19 Q1018=2023062821 - METAR SDCO 282100Z 25004KT 210V310 9999 BKN049 24/12 Q1021=2023062821 - METAR SBJH 282100Z 25003KT 220V300 CAVOK 22/12 Q1021=


