2021110312 - METAR SBEG 031200Z 01002KT 9999 FEW015 SCT100 28/24 Q1012=2021110312 - METAR SBMN 031200Z 03003KT 9999 FEW005 SCT100 28/23 Q1012=2021110312 - METAR SBBV 031200Z 10011KT CAVOK 28/22 Q1013=2021110312 - METAR SBPV 031200Z 35003KT 9999 SCT008 SCT030 23/22 Q1012=2021110312 - METAR SBRB 031200Z 30001KT 9999 FEW007 BKN100 26/24 Q1013=2021110312 - METAR COR SBCY 031200Z 29003KT 8000 VCSH FEW020 BKN100 26/22 Q1012 RERA=2021110312 - METAR SBCY 031200Z 29003KT 8000 FEW020 BKN100 26/22 Q1012=2021110312 - METAR SBSL 031200Z 05013KT 9999 SCT020 30/23 Q1012=2021110312 - METAR SBBE 031200Z 07010KT 9999 BKN017 28/25 Q1012=2021110312 - METAR SBJC 031200Z 10007KT 9999 SCT020 29/25 Q1012=2021110312 - METAR SBSN 031200Z 24001KT 9999 SCT017 27/24 Q1013=2021110312 - METAR SBMQ 031200Z 03009KT 9999 SCT020 32/26 Q1012=2021110312 - METAR SBTF 031200Z 12007KT 9999 FEW008 SCT090 27/25 Q1012=2021110312 - SPECI SBAT 031215Z 23008KT 9999 SCT030 28/24 Q1014=2021110312 - METAR SBUA 031200Z 13003KT 080V190 5000 BR OVC007 25/24 Q1012=2021110312 - METAR SBCC 031200Z 32006KT 9999 FEW015 BKN100 25/22 Q1015=2021110312 - SPECI SBSO 031230Z 27003KT 9999 VCSH SCT018 BKN070 22/22 Q1015=2021110312 - METAR SBIH 031200Z 09004KT 9999 SCT012 SCT100 28/25 Q1012=2021110312 - METAR SBJI 031200Z 10003KT 9999 SCT016 BKN080 25/24 Q1012=2021110312 - METAR SBHT 031200Z 08008KT 9999 BKN015 BKN100 28/25 Q1013=2021110312 - METAR SBMA 031200Z 02004KT 9999 BKN020 BKN100 29/26 Q1313=2021110312 - METAR COR SBMA 031200Z 02004KT 9999 BKN020 BKN100 29/26 Q1013=2021110312 - METAR SBVH 031200Z 09003KT 9999 FEW010 BKN050 23/21 Q1015=2021110312 - METAR SBCJ 031200Z 09004KT 9999 SCT006 SCT100 24/21 Q1016=2021110312 - METAR SBIZ 031200Z 09009KT 9999 BKN025 29/24 Q1013=2021110312 - METAR SBTS 031200Z 30003KT 9999 FEW020 BKN025 25/23 Q1015=2021110312 - METAR SBTB 031200Z 30001KT 9999 BKN006 25/23 Q1013=2021110312 - METAR SBUY 031200Z 12003KT 3000 BR BKN003 BKN100 24/24 Q1019=2021110312 - METAR SBEK 031200Z 33003KT CAVOK 28/25 Q1012=2021110312 - METAR SBGM 031200Z 27003KT 7000 TS BKN007 BKN014 ///030CB 24/23 Q1013=2021110312 - METAR SSKW 031200Z 07005KT 9999 FEW010 SCT018 BKN070 26/26 Q1013=


