
2023062821 - METAR SBAN 282100Z 12006KT CAVOK 21/08 Q1023=2023062821 - METAR SBBH 282100Z 00000KT CAVOK 19/04 Q1022=2023062821 - METAR SBBR 282100Z 16007KT CAVOK 23/09 Q1022=2023062821 - METAR SBBW 282100Z 00000KT CAVOK 30/24 Q1018=2023062821 - METAR SBCF 282100Z 05002KT CAVOK 23/05 Q1022=2023062821 - METAR SBGO 282100Z 13003KT CAVOK 27/09 Q1021=2023062821 - METAR SBIP 282100Z AUTO 19001KT CAVOK 17/12 Q1020=2023062821 - METAR SBLS 282100Z VRB02KT CAVOK 20/06 Q1022=2023062821 - METAR SBMK 282100Z 09006KT CAVOK 24/08 Q1020=2023062821 - METAR SBNV 282100Z 09003KT 060V130 CAVOK 26/09 Q1021=2023062821 - METAR SBPJ 282100Z 22002KT CAVOK 30/21 Q1014=2023062821 - METAR SBYS 282100Z 33002KT CAVOK 21/12 Q1021=2023062821 - METAR SBAX 282100Z 29005KT CAVOK 23/10 Q1023=2023062821 - METAR SBBP 282100Z 00000KT CAVOK 21/13 Q1021=2023062821 - METAR SBGP 282100Z 22006KT CAVOK 23/11 Q1021=2023062821 - METAR SBJD 282100Z VRB02KT CAVOK 21/12 Q1022=2023062821 - METAR SBKP 282100Z 25007KT CAVOK 24/11 Q1021=2023062821 - METAR SBSJ 282100Z 27007KT CAVOK 24/12 Q1021=2023062821 - METAR SBRP 282100Z 00000KT CAVOK 25/09 Q1020=2023062821 - METAR SBSR 282100Z 19004KT CAVOK 26/11 Q1020=2023062821 - METAR SBUL 282100Z 08002KT CAVOK 22/07 Q1023=2023062821 - METAR SBUR 282100Z 18005KT CAVOK 23/10 Q1022=2023062821 - METAR SNDV 282100Z AUTO 13005KT CAVOK 23/10 Q1022=2023062821 - METAR SDAM 282100Z 22003KT 9999 FEW045 23/13 Q1020=2023062821 - METAR SWLC 282100Z AUTO 17007KT CAVOK 26/12 Q1020=2023062821 - METAR SBBU 282100Z 23004KT CAVOK 25/16 Q1020=2023062821 - METAR SBAE 282100Z 28003KT CAVOK 24/12 Q1021=2023062821 - METAR SBAU 282100Z 00000KT CAVOK 28/12 Q1019=


