2021110312 - METAR SAEZ 031200Z 14007KT 1000 R11/0900D DZ BR BKN005 BKN017 20/19 
Q1011 NOSIG=2021110312 - SPECI COR SAEZ 031214Z 15007KT 180V120 3000 -DZ BR SCT005 BKN013 20/19 Q1011 NOSIG=2021110312 - SPECI COR SAEZ 031214Z 15007KT 120V180 3000 -DZ BR SCT005 BKN013 20/19 Q1011 NOSIG=2021110312 - SPECI SAEZ 031214Z 15007KT 120V180 3000 -DZ BR SCT005 BKN013 20/19 
Q1011 NOSIG=2021110312 - SPECI SAEZ 031228Z 15008KT 7000 -DZ FEW005 SCT007 BKN013 21/19 Q1011 
NOSIG=2021110312 - SPECI COR SAEZ 031228Z 15008KT 7000 -DZ FEW005 SCT007 BKN013 21/19 Q1011 NOSIG=2021110312 - METAR SUMU 031200Z 12010KT 8000 OVC004 19/19 Q1011 NOSIG=2021110312 - METAR SGAS 031200Z 13004KT 9999 SCT027 BKN080 25/21 Q1011=2021110312 - METAR SGAS 031230Z 15004KT 090V200 9999 SCT027 BKN080 26/21 Q1011=2021110312 - METAR SARE 031200Z  18003KT 9999  SCT012 BKN100 
22/18 Q1012=2021110312 - METAR COR SARE 031200Z 18003KT 9999 SCT012 BKN100 22/18 Q1012=2021110312 - SPECI SARE 031225Z  23003KT 9999 TS SCT012
FEW050CB BKN100  22/18 Q1012=2021110312 - SPECI COR SARE 031225Z 23003KT 9999 TS SCT012 FEW050CB BKN100 22/18 Q1012=2021110312 - METAR SBUG 031200Z 25004KT 220V290 9999 FEW007 BKN013 BKN025 22/19 Q1010=2021110312 - METAR SBBG 031200Z 05009KT 9999 FEW033 BKN080 20/18 Q1010=2021110312 - SPECI SBPK 031215Z 07005KT 4500 -RA SCT006 OVC035 22/21 Q1012=2021110312 - METAR COR SBSM 031200Z 10007KT 9000 -RA SCT004 SCT023 FEW030TCU OVC070 19/19 Q1011 RETSRA=2021110312 - METAR SBSM 031200Z 10007KT 9000 -RA SCT004 SCT023 FEW030TCU OVC070 19/19 Q1011 RETS=2021110312 - SPECI SBSM 031228Z 09009KT 9999 BKN006 SCT040 BKN060 20/20 Q1011=2021110312 - METAR SBNM 031200Z AUTO 04007KT 020V080 CAVOK 21/19 Q1012=2021110312 - METAR SBPA 031200Z VRB02KT 9000 FEW040TCU OVC090 23/21 Q1010=2021110312 - METAR SBCO 031200Z VRB02KT 5000 BR FEW040TCU OVC070 22/20 Q1010=2021110312 - METAR SBJA 031200Z 03016KT 9999 FEW020 26/21 Q1011=2021110312 - METAR SBCH 031200Z 03010KT 9999 SCT020 BKN100 24/17 Q1014=2021110312 - METAR SBFL 031200Z 34015KT 9999 FEW017 SCT040 24/19 Q1014=2021110312 - METAR SBNF 031200Z 03012KT 9999 SCT020 24/19 Q1014=2021110312 - METAR SBJV 031200Z 01004KT 9999 BKN020 24/19 Q1015=2021110312 - METAR SBCT 031200Z 08006KT 9999 BKN018 18/14 Q1018=2021110312 - METAR SBBI 031200Z 07011KT 9999 FEW015 19/14 Q1018=2021110312 - METAR SBFI 031200Z 33002KT CAVOK 27/19 Q1012=2021110312 - METAR SSGG 031200Z /////KT 5000 BR SCT006 OVC015 ///// Q////=2021110312 - METAR SBPO 031200Z 07006KT CAVOK 22/16 Q1016=2021110312 - METAR SBCA 031200Z 03014KT CAVOK 24/16 Q1016=2021110312 - METAR SBTD 031200Z 06012KT CAVOK 26/19 Q1014=2021110312 - SPECI SBPP 031215Z 36010KT 9999 FEW020 28/18 Q1014=2021110312 - METAR SBDB 031200Z AUTO 05007KT 010V080 CAVOK 29/18 Q1012=2021110312 - SPECI SBDB 031230Z /////KT CAVOK ///// Q////=2021110312 - METAR SBCG 031200Z 08008KT 050V110 CAVOK 29/18 Q1013=2021110312 - METAR SBCR 031200Z 26006KT CAVOK 29/21 Q1010=2021110312 - METAR SBTG 031200Z 13005KT CAVOK 27/19 Q1012=2021110312 - METAR SBMG 031200Z 12007KT CAVOK 25/18 Q1013=2021110312 - METAR SBLO 031200Z 12007KT 9999 FEW020 24/17 Q1015=2021110312 - METAR SBDN 031200Z 01011KT CAVOK 25/16 Q1014=2021110312 - METAR SBSP 031200Z 15006KT 9999 BKN015 OVC025 19/15 Q1017=2021110312 - METAR SBMT 031200Z 11009KT 9999 BKN020 20/15 Q1016=2021110312 - METAR SBGR 031200Z 11006KT 9999 BKN020 20/16 Q1016=2021110312 - METAR SBST 031200Z 15008KT 120V190 9999 FEW012 BKN021 BKN036 23/20 Q1014=2021110312 - METAR SBTA 031200Z VRB02KT 9999 BKN030 23/17 Q1014=2021110312 - METAR SBGW 031200Z VRB03KT 9999 SCT025 24/16 Q1015=2021110312 - METAR SBSC 031200Z 23004KT 9999 SCT006 BKN018 23/21 Q1013 RERA=2021110312 - METAR SBJR 031200Z 19003KT 9999 SCT018 BKN025 27/23 Q1013=2021110312 - METAR SBAF 031200Z 23006KT 9999 FEW015 BKN025 23/20 Q1013=2021110312 - METAR SBRJ 031200Z 16007KT 9999 FEW012 SCT020 BKN040 24/21 Q1012=2021110312 - METAR SBGL 031200Z 34003KT 250V030 9999 FEW010 SCT015 BKN030 23/21 Q1013=2021110312 - METAR SBBQ 031200Z VRB03KT 9999 FEW023 22/15 Q1018=2021110312 - METAR SBZM 031200Z 27002KT 9999 SCT040 25/19 Q1014=2021110312 - METAR SBES 031200Z 23011KT 9999 SCT013 24/21 Q1012=2021110312 - METAR SBCB 031200Z 25010KT 6000 SCT010 BKN030 23/21 Q1012=2021110312 - METAR SBME 031200Z 22012KT 9999 SCT020 26/22 Q1011=2021110312 - METAR SBMM 031200Z AUTO 22012KT 9999 SCT019 BKN043 ///// Q1009 W///S4=2021110312 - SPECI SBMM 031239Z AUTO 21017KT 9000 NCD ///// Q1010 W///S4=2021110312 - METAR SBLB 031200Z AUTO /////KT //// NCD 25/21 Q1009 W25/S4=2021110312 - METAR SBCP 031200Z 24018KT 9999 SCT015 BKN050 25/20 Q1011=2021110312 - METAR SBFS 031200Z 23020KT 9999 BKN008 24/23 Q1011=2021110312 - METAR SBEN 031200Z AUTO 19004KT 9999 NCD 26/21 Q1010 W/////=2021110312 - SPECI SBEN 031225Z AUTO 20009KT //// FEW022 26/21 Q1010 W/////=2021110312 - METAR SBMI 031200Z 21010KT 9999 FEW008 SCT013 BKN030 24/22 Q1013=2021110312 - METAR SDCO 031200Z 13009KT 090V170 9999 SCT025 23/16 Q1015=2021110312 - METAR SBJH 031200Z 12012KT 9999 SCT025 22/16 Q1015=


