
       <colgroup>
         <col style="width: 70%;">
         <col style="width: 20%;">
         <col style="width: 10%;">
        </colgroup>
        <thead>
            <tr>
                <th colspan="3" class="table-secondary"><img id="imgLoad1" class="imgLoad" src="pngs/green-button30.png" alt="" border="1" height="100%">  FIR BRASÍLIA</th>
            </tr>
            <tr>
                
            </tr>

            
        </thead>

        <tbody><tr title="SÃO JOSÉ DO RIO PRETO - SÃO JOSÉ DO RIO PRETO, SP
Lat: 20 °S
Long: 49 °W

CMA-1: SBGR" class="table-striped"><td><b>METAR SBSR 220200Z 14012KT <span style="color:red"> 3000 </span> TSRA FEW015 SCT025 FEW030CB BKN070 22/18 Q1013=
</b></td><td> | VIS = 3000M |</td><td>SBGR</td></tr></tbody>
    