
       <colgroup>
         <col style="width: 70%;">
         <col style="width: 20%;">
         <col style="width: 10%;">
        </colgroup>
        <thead>
            <tr>
                <th colspan="3" class="table-secondary"><img id="imgLoad1" class="imgLoad" src="pngs/green-button30.png" alt="" height="100%" border="1">  FIR BRASÍLIA</th>
            </tr>
            <tr>
                
            </tr>

            
        </thead>

        <tbody><tr title="PROFESSOR URBANO ERNESTO STUMPF - SÃO JOSÉ DOS CAMPOS, SP
Lat: 23 °S
Long: 45 °W

CMA-1: SBGL" class="table-striped"><td><b>METAR SBSJ 221000Z 21002KT <span style="color:red"> 4000 </span> BR BKN008 BKN030 22/20 Q1016=
</b></td><td> | VIS = 4000M |</td><td>SBGL</td></tr></tbody>
    