
      <colgroup>
        <col style="width: 50%;">
        <col style="width: 20%;">
        <col style="width: 20%;">
        <col style="width: 10%;">
     </colgroup>
      <thead>
        <tr>
          <th colspan="4" class="table-secondary"><img id="imgLoad3" class="imgLoad" src="pngs/green-button30.png" alt="" border="1" height="100%"> FIR CURITIBA</th>
        </tr>

        <tr>
          
        </tr>
        
      <tr class="table-warning"><td><b>GAMET VALID 051800/052400 SBCW - <br> [V1]  ... 2500M RA ...  S OF S24 N OF S29 <span style="color:red" title="Localidades (dentre as listadas abaixo) que se encontram na área geográfica desta previsão..."> [  SBUG SBCX SBFI SBCA ]</span> <br>[V2]  ... 4000M RA ...  S OF S29 <span style="color:red" title="Localidades (dentre as listadas abaixo) que se encontram na área geográfica desta previsão..."> [  SBUG SBCX ]</span> <br>[V3]  ... 4000M RA ...  N OF S24 <span style="color:red" title="Localidades (dentre as listadas abaixo) que se encontram na área geográfica desta previsão..."> [  SBCG SBBQ SBZM SBMM SBLB SBFS ]</span> <br> - <br> [T1]  ... ISOL CB 3000/ABV 10000FT ...  N OF S27 <span style="color:red" title="Localidades (dentre as listadas abaixo) que se encontram na área geográfica desta previsão..."> [  SBFI SBCA SBCG SBBQ SBZM SBMM SBLB SBFS ]</span> <br>[T2]  ... ISOL CB 3000/ABV 10000FT ...  S OF S29 <span style="color:red" title="Localidades (dentre as listadas abaixo) que se encontram na área geográfica desta previsão..."> [  SBUG SBCX ]</span> <br>[T3]  ... ISOL TCU 2500/ABV 10000FT ...  <span style="color:red" title="Localidades (dentre as listadas abaixo) que se encontram na área geográfica desta previsão..."> [  SBUG SBCX SBFI SBCA SBCG SBBQ SBZM SBMM SBLB SBFS ]</span> <br>[T4]  ... BKN 0800/2000FT ...  W OF W053 S OF S22 N OF S28 <span style="color:red" title="Localidades (dentre as listadas abaixo) que se encontram na área geográfica desta previsão..."> [  SBFI SBCA ]</span> <br>21/24 <br>[T5]  ... BKN 0600/2000FT ...  S OF S25 <span style="color:red" title="Localidades (dentre as listadas abaixo) que se encontram na área geográfica desta previsão..."> [  SBUG SBCX SBFI SBCA ]</span> <br></b></td><td></td><td></td><td></td></tr><tr class="cabecalho"><td><b>Mensagem</b></td><td><b>Status GAMET</b></td><td><b>Status AIRMET</b></td><td><b>CMA-1</b></td></tr></thead>

      <tbody id="firCWlines"><tr title="

CMA-1: ESTRANGEIRA

" class="table-striped trSUMU"><td><b>METAR SUMU 052100Z 09008KT 7000 <span style="color:red"> TSRA </span> FEW026 FEW040CB BKN070 23/21Q1007 NOSIG=
</b></td><td></td><td></td><td>ESTRANGEIRA</td></tr><tr title="

CMA-1: ESTRANGEIRA

" class="table-striped trSARE"><td><b>METAR SARE 052100Z VRB03KT 8000 <span style="color:red"> -TSRA </span> BKN039FEW046CB OVC050 24/22 Q1006=
</b></td><td></td><td></td><td>ESTRANGEIRA</td></tr><tr title="RUBEM BERTA - URUGUAIANA, RS
Lat: 29 °S
Long: 57 °W

CMA-1: SBPA

" class="table-striped trSBUG"><td><b>METAR SBUG 052100Z 12010KT 9999 <span style="color:red"> -TSRA </span> FEW040CB BKN050 BKN100 22/22 Q1005=
</b></td><td></td><td></td><td>SBPA</td></tr><tr title="CAMPO DOS BUGRES - CAXIAS DO SUL, RS
Lat: 29 °S
Long: 51 °W

CMA-1: SBPA

" class="table-striped trSBCX"><td><b>METAR SBCX 052100Z 24004KT <span style="color:red"> 4000 </span> RA SCT004 BKN012 OVC100 21/20 Q1012=
</b></td><td></td><td></td><td>SBPA</td></tr><tr title="CAMPO DOS BUGRES - CAXIAS DO SUL, RS
Lat: 29 °S
Long: 51 °W

CMA-1: SBPA

" class="table-striped trSBCX"><td><b>SPECI SBCX 052115Z 25004KT <span style="color:red"> 3000 </span> <span style="color:red"> -TSRA </span> SCT004 BKN010 OVC100 /////CB 20/19 Q1012=
</b></td><td></td><td></td><td>SBPA</td></tr><tr title="CATARATAS - FOZ DO IGUAÇU, PR
Lat: 25 °S
Long: 54 °W

CMA-1: SBPA

" class="table-striped trSBFI"><td><b>METAR SBFI 052100Z 00000KT <span style="color:red"> 2500 </span> RA BR <span style="color:red"> BKN007 </span> OVC013 22/22 Q1007=
</b></td><td></td><td></td><td>SBPA</td></tr><tr title="CATARATAS - FOZ DO IGUAÇU, PR
Lat: 25 °S
Long: 54 °W

CMA-1: SBPA

" class="table-striped trSBFI"><td><b>SPECI SBFI 052110Z 16003KT <span style="color:red"> 4000 </span> VCSH BR SCT007 BKN015 22/22 Q1007 RERA=
</b></td><td></td><td></td><td>SBPA</td></tr><tr title="CASCAVEL - CASCAVEL, PR
Lat: 25 °S
Long: 53 °W

CMA-1: SBPA

" class="table-striped trSBCA"><td><b>METAR SBCA 052100Z 02010KT 9999 <span style="color:red"> BKN005 </span> BKN070 21/20 Q1010 RERA=
</b></td><td></td><td></td><td>SBPA</td></tr><tr title="CAMPO GRANDE - CAMPO GRANDE, MS
Lat: 20 °S
Long: 54 °W

CMA-1: SBPA

" class="table-striped trSBCG"><td><b>METAR SBCG 052100Z 36010KT 6000 <span style="color:red"> -TSRA </span> SCT010 BKN030 FEW050CB BKN080 21/20 Q1011 RESHRA=
</b></td><td></td><td></td><td>SBPA</td></tr><tr title="MAJOR BRIGADEIRO DOORGAL BORGES - BARBACENA, MG
Lat: 21 °S
Long: 43 °W

CMA-1: SBGL

" class="table-striped trSBBQ"><td><b>SPECI SBBQ 052104Z VRB02KT 9999 <span style="color:red"> TS </span> FEW030CB SCT035 BKN100 24/19 Q1019=
</b></td><td></td><td></td><td>SBGL</td></tr><tr title="AEROPORTO REGIONAL DA ZONA DA MATA - GOIANÁ, MG
Lat: 21 °S
Long: 43 °W

CMA-1: SBGL

" class="table-striped trSBZM"><td><b>METAR SBZM 052100Z 07002KT 9999 <span style="color:red"> TS </span> FEW038CB SCT040 29/25 Q1013=
</b></td><td></td><td></td><td>SBGL</td></tr><tr title="PLATAFORMA P-20 - MACAÉ, RJ
Lat: 22 °S
Long: 40 °W

CMA-1: SBGL

" class="table-striped trSBMM"><td><b>METAR SBMM 052100Z AUTO  <span style="color:red">02019KT</span>  9999 NCD 26/23 Q1012 W///S4=
</b></td><td></td><td></td><td>SBGL</td></tr><tr title="PLATAFORMA P-25 - MACAÉ, RJ
Lat: 22 °S
Long: 39 °W

CMA-1: SBGL

" class="table-striped trSBLB"><td><b>METAR SBLB 052100Z AUTO  <span style="color:red">02025KT</span>  9999 NCD 26/23 Q1012 W26/S4=
</b></td><td></td><td></td><td>SBGL</td></tr><tr title="FAROL DE SÃO TOMÉ - CAMPOS DOS GOYTACAZES, RJ
Lat: 22 °S
Long: 41 °W

CMA-1: SBGL

" class="table-striped trSBFS"><td><b>METAR SBFS 052000Z  <span style="color:red">04015KT</span>  9999 SCT020 FEW025TCU BKN080 27/24 Q1011=
</b></td><td></td><td></td><td>SBGL</td></tr><tr title="FAROL DE SÃO TOMÉ - CAMPOS DOS GOYTACAZES, RJ
Lat: 22 °S
Long: 41 °W

CMA-1: SBGL

" class="table-striped trSBFS"><td><b>SPECI SBFS 052045Z 04014KT 9999 SCT020 BKN093 26/24 Q1011=
</b></td><td></td><td></td><td>SBGL</td></tr></tbody>
    