
      <colgroup>
        <col style="width: 50%;">
        <col style="width: 15%;">
        <col style="width: 15%;">
        <col style="width: 15%;">
        <col style="width: 5%;">
     </colgroup>
      <thead>
        <tr>
          <th colspan="5" class="table-secondary"><img id="imgLoad3" class="imgLoad" src="pngs/green-button30.png" alt="" border="1" height="100%"> FIR CURITIBA</th>
        </tr>

        <tr>
          
        </tr>
        
      <tr class="table-warning tableGametContent"><td><b>GAMET VALID 080600/081200 SBCW - <br> [V1]  ... 0500M RA ...  N OF S26 <span style="color:red" title="Localidades (dentre as listadas abaixo) que se encontram na área geográfica desta previsão..."> [  SBCT SBBI SBAE SBTA SBGW SBBQ SBLB ]</span> <br> - <br> [T1]  ... ISOL CB 2500/ABV 10000FT ...  <span style="color:red" title="Localidades (dentre as listadas abaixo) que se encontram na área geográfica desta previsão..."> [  SBBG SBCT SBBI SBAE SBTA SBGW SBBQ SBLB ]</span> <br>[T2]  ... ISOL TCU 2500/ABV 10000FT ...  <span style="color:red" title="Localidades (dentre as listadas abaixo) que se encontram na área geográfica desta previsão..."> [  SBBG SBCT SBBI SBAE SBTA SBGW SBBQ SBLB ]</span> <br>[T3]  ... BKN 0200/1500FT ...  N OF S26 <span style="color:red" title="Localidades (dentre as listadas abaixo) que se encontram na área geográfica desta previsão..."> [  SBCT SBBI SBAE SBTA SBGW SBBQ SBLB ]</span> <br></b></td><td></td><td></td><td></td><td></td></tr><tr class="cabecalho"><td><b>Mensagem</b></td><td><b>Status AD WRNG</b></td><td><b>Status GAMET</b></td><td><b>Status AIRMET</b></td><td><b>CMA-1</b></td></tr></thead>

      <tbody id="firCWlines"><tr title="

CMA-1: ESTRANGEIRA

" class="table-striped trSAEZ"><td><b>METAR SAEZ 081000Z 33004KT <span style="color:red"> 4000 </span> BR FEW003 BKN100 20/18 Q1012 NOSIG=
</b></td><td></td><td></td><td></td><td>ESTRANGEIRA</td></tr><tr title="COMANDANTE GUSTAVO KRAEMER - BAGÉ, RS
Lat: 31 °S
Long: 54 °W

CMA-1: SBPA



AIRMET SBCW - N. 1 - VALID 080918/081210 - 
VISIBILIDADE:  2900M BR " class="table-striped trSBBG table-danger"><td><b>SPECI SBBG 081017Z AUTO 00000KT <span style="color:red"> 1900 </span> BR NSC 16/15 Q1014=
</b><b> <span style="color:red"><br>Parâmetros descobertos: Visibilidade</span> <b></b></b></td><td></td><td>9999M /  <span style="color:red">2500FT</span> </td><td> <span style="color:red">2900M</span>  / 1500FT</td><td>SBPA</td></tr><tr title="AFONSO PENA - CURITIBA, PR
Lat: 25 °S
Long: 49 °W

CMA-1: SBPA

" class="table-striped trSBCT"><td><b>METAR SBCT 081000Z 36003KT 9999 <span style="color:red"> OVC008 </span> 17/16 Q1017=
</b></td><td></td><td> <span style="color:red">0500M</span>  /  <span style="color:red">0200FT</span> </td><td></td><td>SBPA</td></tr><tr title="BACACHERI - CURITIBA, PR
Lat: 25 °S
Long: 49 °W

CMA-1: SBPA

" class="table-striped trSBBI"><td><b>METAR SBBI 081000Z 35006KT 9999 <span style="color:red"> OVC008 </span> 17/16 Q1017=
</b></td><td></td><td> <span style="color:red">0500M</span>  /  <span style="color:red">0200FT</span> </td><td></td><td>SBPA</td></tr><tr title="BAURU - BAURU, SP
Lat: 22 °S
Long: 49 °W

CMA-1: SBPA

" class="table-striped trSBAE table-danger"><td><b>SPECI SBAE 081020Z 10005KT <span style="color:red"> 0600 </span> FG <span style="color:red"> OVC001 </span> 19/18 Q1014=
</b><b> <span style="color:red"><br>Parâmetros descobertos: Teto</span> <b></b></b></td><td></td><td> <span style="color:red">0500M</span>  /  <span style="color:red">0200FT</span> </td><td></td><td>SBPA</td></tr><tr title="BASE DE AVIAÇÃO DE TAUBATÉ - TAUBATÉ, SP
Lat: 23 °S
Long: 45 °W

CMA-1: SBGL

" class="table-striped trSBTA"><td><b>METAR SBTA 081000Z 00000KT <span style="color:red"> 4000 </span> 1200E BR BKN011 BKN080 21/20 Q1015=
</b></td><td></td><td> <span style="color:red">0500M</span>  /  <span style="color:red">0200FT</span> </td><td></td><td>SBGL</td></tr><tr title="BASE DE AVIAÇÃO DE TAUBATÉ - TAUBATÉ, SP
Lat: 23 °S
Long: 45 °W

CMA-1: SBGL

" class="table-striped trSBTA"><td><b>SPECI SBTA 081010Z 08003KT <span style="color:red"> 4000 </span> 1200S BR FEW012 BKN080 21/20 Q1014=
</b></td><td></td><td> <span style="color:red">0500M</span>  /  <span style="color:red">0200FT</span> </td><td></td><td>SBGL</td></tr><tr title="GUARATINGUETÁ - GUARATINGUETÁ, SP
Lat: 22 °S
Long: 45 °W

CMA-1: SBPA

" class="table-striped trSBGW"><td><b>METAR SBGW 081000Z 04002KT <span style="color:red"> 3000 </span> BR FEW007 BKN010 BKN070 21/19 Q1015=
</b></td><td></td><td> <span style="color:red">0500M</span>  /  <span style="color:red">0200FT</span> </td><td></td><td>SBPA</td></tr><tr title="MAJOR BRIGADEIRO DOORGAL BORGES - BARBACENA, MG
Lat: 21 °S
Long: 43 °W

CMA-1: SBGL

" class="table-striped trSBBQ"><td><b>METAR SBBQ 081000Z VRB02KT <span style="color:red"> 4000 </span> -RA BR <span style="color:red"> OVC009 </span> 18/16 Q1019=
</b></td><td></td><td> <span style="color:red">0500M</span>  /  <span style="color:red">0200FT</span> </td><td></td><td>SBGL</td></tr><tr title="PLATAFORMA P-25 - MACAÉ, RJ
Lat: 22 °S
Long: 39 °W

CMA-1: SBGL

" class="table-striped trSBLB"><td><b>SPECI SBLB 081018Z AUTO 24008KT 9999 SCT017 26/22 Q1012 W28/S4=
</b></td><td></td><td> <span style="color:red">0500M</span>  /  <span style="color:red">0200FT</span> </td><td></td><td>SBGL</td></tr></tbody>
    