
      <colgroup>
        <col style="width: 50%;">
        <col style="width: 15%;">
        <col style="width: 15%;">
        <col style="width: 15%;">
        <col style="width: 5%;">
      </colgroup>
      <thead>
        <tr>
          <th colspan="5" class="table-secondary"><img id="imgLoad1" class="imgLoad" src="pngs/green-button30.png" alt="" border="1" height="100%"> FIR BRASÍLIA</th>
        </tr>
        <tr>
          
        </tr>

        
      <tr class="table-warning tableGametContent"><td><b>GAMET VALID 080600/081200 SBBS - <br> [V1]  ... 1000M RA ...  <span style="color:red" title="Localidades (dentre as listadas abaixo) que se encontram na área geográfica desta previsão..."> [  SBBH SBCF SBLS SBAX SBSJ SBVG ]</span> <br> - <br> [T1]  ... ISOL CB 2500/ABV 10000FT ...  <span style="color:red" title="Localidades (dentre as listadas abaixo) que se encontram na área geográfica desta previsão..."> [  SBBH SBCF SBLS SBAX SBSJ SBVG ]</span> <br>[T2]  ... EMBD CB 2500/ABV 10000FT ...  <span style="color:red" title="Localidades (dentre as listadas abaixo) que se encontram na área geográfica desta previsão..."> [  SBBH SBCF SBLS SBAX SBSJ SBVG ]</span> <br>[T3]  ... ISOL TCU 3000/ABV 10000FT ...  <span style="color:red" title="Localidades (dentre as listadas abaixo) que se encontram na área geográfica desta previsão..."> [  SBBH SBCF SBLS SBAX SBSJ SBVG ]</span> <br>[T4]  ... BKN 0200/3000FT ...  <span style="color:red" title="Localidades (dentre as listadas abaixo) que se encontram na área geográfica desta previsão..."> [  SBBH SBCF SBLS SBAX SBSJ SBVG ]</span> <br></b></td><td></td><td></td><td></td><td></td></tr><tr class="cabecalho"><td><b>Mensagem</b></td><td><b>Status AD WRNG</b></td><td><b>Status GAMET</b></td><td><b>Status AIRMET</b></td><td><b>CMA-1</b></td></tr></thead>

      <tbody><tr title="PAMPULHA - BELO HORIZONTE, MG
Lat: 19 °S
Long: 43 °W

CMA-1: SBBR

" class="table-striped trSBBH"><td><b>METAR SBBH 081000Z 06002KT 9999 <span style="color:red"> BKN009 </span> SCT030 OVC080 20/18 Q1016=
</b></td><td></td><td> <span style="color:red">1000M</span>  /  <span style="color:red">0200FT</span> </td><td></td><td>SBBR</td></tr><tr title="TANCREDO NEVES - BELO HORIZONTE, MG
Lat: 19 °S
Long: 43 °W

CMA-1: SBBR

" class="table-striped trSBCF"><td><b>METAR SBCF 081000Z 06003KT <span style="color:red"> 1500 </span> R16/P2000 R34/P2000 BR <span style="color:red"> OVC002 </span> 19/18 Q1017=
</b></td><td></td><td> <span style="color:red">1000M</span>  /  <span style="color:red">0200FT</span> </td><td></td><td>SBBR</td></tr><tr title="TANCREDO NEVES - BELO HORIZONTE, MG
Lat: 19 °S
Long: 43 °W

CMA-1: SBBR

" class="table-striped trSBCF"><td><b>SPECI SBCF 081014Z 05004KT <span style="color:red"> 3000 </span> BR <span style="color:red"> OVC002 </span> 19/18 Q1017=
</b></td><td></td><td> <span style="color:red">1000M</span>  /  <span style="color:red">0200FT</span> </td><td></td><td>SBBR</td></tr><tr title="TANCREDO NEVES - BELO HORIZONTE, MG
Lat: 19 °S
Long: 43 °W

CMA-1: SBBR

" class="table-striped trSBCF"><td><b>SPECI SBCF 081028Z 05004KT 5000 BR <span style="color:red"> OVC005 </span> 19/18 Q1017=
</b></td><td></td><td> <span style="color:red">1000M</span>  /  <span style="color:red">0200FT</span> </td><td></td><td>SBBR</td></tr><tr title="LAGOA SANTA - LAGOA SANTA, MG
Lat: 19 °S
Long: 43 °W

CMA-1: SBBR

" class="table-striped trSBLS"><td><b>METAR SBLS 081000Z 09002KT <span style="color:red"> 4000 </span> BR <span style="color:red"> BKN004 </span> BKN030 BKN080 19/19 Q1017=
</b></td><td></td><td> <span style="color:red">1000M</span>  /  <span style="color:red">0200FT</span> </td><td></td><td>SBBR</td></tr><tr title="ARAXÁ - ARAXÁ, MG
Lat: 19 °S
Long: 46 °W

CMA-1: SBGR

" class="table-striped trSBAX"><td><b>METAR SBAX 081000Z 01002KT 8000 -RA <span style="color:red"> BKN004 </span> OVC012 18/18 Q1017=
</b></td><td></td><td> <span style="color:red">1000M</span>  /  <span style="color:red">0200FT</span> </td><td></td><td>SBGR</td></tr><tr title="PROFESSOR URBANO ERNESTO STUMPF - SÃO JOSÉ DOS CAMPOS, SP
Lat: 23 °S
Long: 45 °W

CMA-1: SBGL

" class="table-striped trSBSJ"><td><b>METAR SBSJ 081000Z 06002KT 8000 <span style="color:red"> BKN009 </span> BKN020 21/19 Q1015=
</b></td><td></td><td> <span style="color:red">1000M</span>  /  <span style="color:red">0200FT</span> </td><td></td><td>SBGL</td></tr><tr title="MAJOR BRIGADEIRO TROMPOWSKY - VARGINHA, MG
Lat: 21 °S
Long: 45 °W

CMA-1: SBGR



AIRMET SBBS - N. 7 - VALID 080910/081210 - 
TETO: 100/0300FT 

AIRMET SBBS - N. 6 - VALID 080910/081210 - 
VISIBILIDADE:  0100M FG " class="table-striped trSBVG"><td><b>METAR SBVG 081000Z 14005KT <span style="color:red"> 4500 </span> BCFG BR SCT018 BKN060 18/18 Q1017=
</b></td><td></td><td> <span style="color:red">1000M</span>  /  <span style="color:red">0200FT</span> </td><td> <span style="color:red">0100M</span>  /  <span style="color:red">100FT</span> </td><td>SBGR</td></tr></tbody>
    